ONEWEB-0045             
1 45151U 20008W   25116.04919819  .00000091  00000+0  22234-3 0  9997
2 45151  87.8794 104.1828 0001930  84.0078 276.1269 13.11413200256513
ONEWEB-0047             
1 45152U 20008X   25116.23718217  .00000414  00000+0  11494-2 0  9992
2 45152  87.8789 119.4001 0002041  87.9951 272.1410 13.10371191254384
ONEWEB-0048             
1 45153U 20008Y   25116.53763556  .00000638  00000+0  17899-2 0  9995
2 45153  87.8798 119.3625 0002115  90.5065 269.6305 13.10372016254004
ONEWEB-0049             
1 45154U 20008Z   25115.70019514  .00000411  00000+0  11413-2 0  9997
2 45154  87.8794 119.5211 0002476  96.4813 263.6597 13.10372953253354
ONEWEB-0051             
1 45155U 20008AA  25116.20009668  .00000152  00000+0  39327-3 0  9990
2 45155  87.8795 104.1960 0001894  89.1273 271.0072 13.11413065257210
ONEWEB-0052             
1 45156U 20008AB  25116.53514432  .00000688  00000+0  19334-2 0  9996
2 45156  87.8787 119.3017 0002544  92.3565 267.7854 13.10371193254138
ONEWEB-0053             
1 45157U 20008AC  25115.75413707  .00000382  00000+0  10577-2 0  9994
2 45157  87.8796 119.5172 0002041  78.9036 281.2320 13.10375783253247
ONEWEB-0054             
1 45158U 20008AD  25116.55256471 -.00000018  00000+0 -87475-4 0  9998
2 45158  87.8787 119.3340 0002032  92.7145 267.4215 13.10369009254220
